NORAD_CAT_ID,OBJECT_NAME,OBJECT_TYPE,EPOCH,MEAN_MOTION,ECCENTRICITY,INCLINATION,RA_OF_ASC_NODE,ARG_OF_PERICENTER,MEAN_ANOMALY,BSTAR,MEAN_MOTION_DOT,MEAN_MOTION_DDOT,TLE_LINE0,TLE_LINE1,TLE_LINE2,SEMIMAJOR_AXIS,PERIOD,APOGEE,PERIGEE,DECAYED
53868.0,STARLINK-4789,PAYLOAD,2023-03-08 14:38:48,15.08853231,0.0001252,53.2193,148.8954,126.7516,233.3591,-9.0078e-05,-1.722e-05,0.0,0 STARLINK-4789,1 53868U 22114BC  23067.61028650 -.00001722  00000-0 -90078-4 0  9998,2 53868  53.2193 148.8954 0001252 126.7516 233.3591 15.08853231 27238,6917.84,95.437,540.571,538.839,0.0
53868.0,STARLINK-4789,PAYLOAD,2023-03-08 22:35:45,15.08843895,0.0001249,53.2178,147.411,81.3967,278.7167,-0.00016745,-2.952e-05,0.0,0 STARLINK-4789,1 53868U 22114BC  23067.94149652 -.00002952  00000-0 -16745-3 0  9994,2 53868  53.2178 147.4110 0001249  81.3967 278.7167 15.08843895 27284,6917.868,95.437,540.598,538.869,0.0
53868.0,STARLINK-4789,PAYLOAD,2023-03-09 11:18:49,15.08849558,0.0001273,53.2186,145.0296,92.5127,267.6011,5.6113e-05,6.05e-06,0.0,0 STARLINK-4789,1 53868U 22114BC  23068.47140717  .00000605  00000-0  56113-4 0  9991,2 53868  53.2186 145.0296 0001273  92.5127 267.6011 15.08849558 27367,6917.851,95.437,540.597,538.836,0.0
53868.0,STARLINK-4789,PAYLOAD,2023-03-10 11:09:35,15.08849552,0.0001125,53.2181,140.5706,88.3712,271.7409,0.0002368,3.484e-05,0.0,0 STARLINK-4789,1 53868U 22114BC  23069.46499580  .00003484  00000-0  23680-3 0  9996,2 53868  53.2181 140.5706 0001125  88.3712 271.7409 15.08849552 28055,6917.851,95.437,540.494,538.938,0.0
53868.0,STARLINK-4789,PAYLOAD,2023-03-11 07:49:38,15.08834748,0.0001388,53.2189,136.7037,103.7206,256.3941,-0.00014161,-2.541e-05,0.0,0 STARLINK-4789,1 53868U 22114BC  23070.32613989 -.00002541  00000-0 -14161-3 0  9993,2 53868  53.2189 136.7037 0001388 103.7206 256.3941 15.08834748 27643,6917.896,95.438,540.722,538.801,0.0
53868.0,STARLINK-4789,PAYLOAD,2023-03-11 09:25:01,15.08834157,0.0001504,53.2198,136.4085,102.7194,257.3967,-0.00014419,-2.582e-05,0.0,0 STARLINK-4789,1 53868U 22114BC  23070.39238084 -.00002582  00000-0 -14419-3 0  9990,2 53868  53.2198 136.4085 0001504 102.7194 257.3967 15.08834157 28192,6917.898,95.438,540.804,538.723,0.0
53868.0,STARLINK-4789,PAYLOAD,2023-03-11 14:11:09,15.08855536,0.0001279,53.2191,135.5138,125.9367,234.1744,-0.00015191,-2.706e-05,0.0,0 STARLINK-4789,1 53868U 22114BC  23070.59108661 -.00002706  00000-0 -15191-3 0  9995,2 53868  53.2191 135.5138 0001279 125.9367 234.1744 15.08855536 27685,6917.833,95.437,540.583,538.813,0.0
53868.0,STARLINK-4789,PAYLOAD,2023-03-12 06:05:03,15.0882324,0.0001426,53.2191,132.5407,113.7205,246.3937,-0.0001501,-2.675e-05,0.0,0 STARLINK-4789,1 53868U 22114BC  23071.25350854 -.00002675  00000-0 -15010-3 0  9997,2 53868  53.2191 132.5407 0001426 113.7205 246.3937 15.08823240 27788,6917.932,95.439,540.783,538.81,0.0
53868.0,STARLINK-4789,PAYLOAD,2023-03-12 14:01:58,15.08832235,0.0001291,53.2181,131.0555,96.4456,263.6684,-0.00018168,-3.178e-05,0.0,0 STARLINK-4789,1 53868U 22114BC  23071.58470810 -.00003178  00000-0 -18168-3 0  9994,2 53868  53.2181 131.0555 0001291  96.4456 263.6684 15.08832235 27831,6917.904,95.438,540.662,538.876,0.0
53868.0,STARLINK-4789,PAYLOAD,2023-03-13 04:20:26,15.0883136,0.0001223,53.2178,128.3774,133.3775,226.7319,5.1039e-05,5.24e-06,0.0,0 STARLINK-4789,1 53868U 22114BC  23072.18086330  .00000524  00000-0  51039-4 0  9996,2 53868  53.2178 128.3774 0001223 133.3775 226.7319 15.08831360 27922,6917.907,95.438,540.618,538.926,0.0
53868.0,STARLINK-4789,PAYLOAD,2023-03-13 13:52:44,15.08848501,0.0001227,53.2177,126.5933,115.5984,244.5135,0.00018075,2.591e-05,0.0,0 STARLINK-4789,1 53868U 22114BC  23072.57828834  .00002591  00000-0  18075-3 0  9990,2 53868  53.2177 126.5933 0001227 115.5984 244.5135 15.08848501 28522,6917.854,95.437,540.568,538.871,0.0
53868.0,STARLINK-4789,PAYLOAD,2023-03-14 02:35:51,15.08823103,0.0001708,53.2203,124.2215,83.2137,276.9049,1.0835e-05,-1.16e-06,0.0,0 STARLINK-4789,1 53868U 22114BC  23073.10823630 -.00000116  00000-0  10835-4 0  9998,2 53868  53.2203 124.2215 0001708  83.2137 276.9049 15.08823103 28068,6917.932,95.439,540.979,538.615,0.0
53868.0,STARLINK-4789,PAYLOAD,2023-03-14 13:43:32,15.08838883,0.0001474,53.2185,122.1326,127.4318,232.6808,0.00016007,2.26e-05,0.0,0 STARLINK-4789,1 53868U 22114BC  23073.57189873  .00002260  00000-0  16007-3 0  9990,2 53868  53.2185 122.1326 0001474 127.4318 232.6808 15.08838883 28130,6917.884,95.438,540.768,538.729,0.0
53868.0,STARLINK-4789,PAYLOAD,2023-03-14 20:05:04,15.08843251,9.99e-05,53.2171,120.9435,104.952,255.1583,8.2055e-05,1.018e-05,0.0,0 STARLINK-4789,1 53868U 22114BC  23073.83685888  .00001018  00000-0  82055-4 0  9993,2 53868  53.2171 120.9435 0000999 104.9520 255.1583 15.08843251 28717,6917.87,95.437,540.427,539.044,0.0
53868.0,STARLINK-4789,PAYLOAD,2023-03-15 11:58:53,15.08873809,9.55e-05,53.2181,117.9699,130.6694,229.4381,3.9239e-05,3.37e-06,0.0,0 STARLINK-4789,1 53868U 22114BC  23074.49923497  .00000337  00000-0  39239-4 0  9996,2 53868  53.2181 117.9699 0000955 130.6694 229.4381 15.08873809 28279,6917.777,95.435,540.303,538.981,0.0
53868.0,STARLINK-4789,PAYLOAD,2023-03-15 19:55:51,15.08850711,0.0001442,53.2184,116.4837,82.1409,277.9747,-0.00014123,-2.536e-05,0.0,0 STARLINK-4789,1 53868U 22114BC  23074.83045521 -.00002536  00000-0 -14123-3 0  9996,2 53868  53.2184 116.4837 0001442  82.1409 277.9747 15.08850711 28324,6917.848,95.437,540.71,538.715,0.0
53868.0,STARLINK-4789,PAYLOAD,2023-03-16 02:17:24,15.08835894,0.0001774,53.2192,115.2993,70.9292,289.1892,3.8165e-05,3.19e-06,0.0,0 STARLINK-4789,1 53868U 22114BC  23075.09541989  .00000319  00000-0  38165-4 0  9992,2 53868  53.2192 115.2993 0001774  70.9292 289.1892 15.08835894 28361,6917.893,95.438,540.985,538.531,0.0
53868.0,STARLINK-4789,PAYLOAD,2023-03-16 11:49:42,15.08845092,0.0001473,53.2183,113.5105,90.6592,269.4569,-5.9762e-05,-1.239e-05,0.0,0 STARLINK-4789,1 53868U 22114BC  23075.49285791 -.00001239  00000-0 -59762-4 0  9992,2 53868  53.2183 113.5105 0001473  90.6592 269.4569 15.08845092 28964,6917.865,95.437,540.749,538.711,0.0
53868.0,STARLINK-4789,PAYLOAD,2023-03-16 19:46:39,15.08833744,0.0001273,53.2187,112.0213,95.4799,264.6338,-0.0001333,-2.408e-05,0.0,0 STARLINK-4789,1 53868U 22114BC  23075.82406624 -.00002408  00000-0 -13330-3 0  9998,2 53868  53.2187 112.0213 0001273  95.4799 264.6338 15.08833744 28470,6917.9,95.438,540.645,538.884,0.0
53868.0,STARLINK-4789,PAYLOAD,2023-03-17 08:29:44,15.0883823,0.0001431,53.2179,109.6451,99.8386,260.2768,-0.00024014,-4.108e-05,0.0,0 STARLINK-4789,1 53868U 22114BC  23076.35399083 -.00004108  00000-0 -24014-3 0  9997,2 53868  53.2179 109.6451 0001431  99.8386 260.2768 15.08838230 29096,6917.886,95.438,540.741,538.761,0.0
53868.0,STARLINK-4789,PAYLOAD,2023-03-17 19:37:26,15.08845795,0.000148,53.2184,107.562,97.4202,262.6958,-0.00015181,-2.704e-05,0.0,0 STARLINK-4789,1 53868U 22114BC  23076.81766261 -.00002704  00000-0 -15181-3 0  9999,2 53868  53.2184 107.5620 0001480  97.4202 262.6958 15.08845795 28621,6917.863,95.437,540.752,538.704,0.0
53868.0,STARLINK-4789,PAYLOAD,2023-03-18 11:31:16,15.08850024,0.0001548,53.2183,104.5879,95.8335,264.2834,0.00010336,1.358e-05,0.0,0 STARLINK-4789,1 53868U 22114BC  23077.48005186  .00001358  00000-0  10336-3 0  9994,2 53868  53.2183 104.5879 0001548  95.8335 264.2834 15.08850024 28720,6917.85,95.437,540.786,538.644,0.0
53868.0,STARLINK-4789,PAYLOAD,2023-03-19 06:35:55,15.08830108,0.0001434,53.2176,101.0195,98.4694,261.6461,8.2635e-05,1.027e-05,0.0,0 STARLINK-4789,1 53868U 22114BC  23078.27494642  .00001027  00000-0  82635-4 0  9996,2 53868  53.2176 101.0195 0001434  98.4694 261.6461 15.08830108 28847,6917.911,95.438,540.768,538.784,0.0
53868.0,STARLINK-4789,PAYLOAD,2023-03-19 11:22:04,15.08837674,0.0001415,53.2179,100.1259,95.9582,264.1572,5.1456e-05,5.31e-06,0.0,0 STARLINK-4789,1 53868U 22114BC  23078.47366326  .00000531  00000-0  51456-4 0  9991,2 53868  53.2179 100.1259 0001415  95.9582 264.1572 15.08837674 29418,6917.887,95.438,540.731,538.774,0.0
53868.0,STARLINK-4789,PAYLOAD,2023-03-19 12:57:27,15.08842217,0.000143,53.2182,99.8299,99.664,260.4513,8.737e-05,1.103e-05,0.0,0 STARLINK-4789,1 53868U 22114BC  23078.53989882  .00001103  00000-0  87370-4 0  9996,2 53868  53.2182  99.8299 0001430  99.6640 260.4513 15.08842217 28886,6917.874,95.437,540.728,538.749,0.0
53868.0,STARLINK-4789,PAYLOAD,2023-03-20 08:02:05,15.08841357,0.0001463,53.2183,96.2645,92.0606,268.0554,-9.4662e-05,-1.794e-05,0.0,0 STARLINK-4789,1 53868U 22114BC  23079.33478743 -.00001794  00000-0 -94662-4 0  9994,2 53868  53.2183  96.2645 0001463  92.0606 268.0554 15.08841357 29006,6917.876,95.437,540.753,538.729,0.0
53868.0,STARLINK-4789,PAYLOAD,2023-03-20 11:12:51,15.08843956,0.0001495,53.2186,95.6695,92.775,267.3414,-6.6886e-05,-1.352e-05,0.0,0 STARLINK-4789,1 53868U 22114BC  23079.46726450 -.00001352  00000-0 -66886-4 0  9996,2 53868  53.2186  95.6695 0001495  92.7750 267.3414 15.08843956 29564,6917.868,95.437,540.768,538.699,0.0
53868.0,STARLINK-4789,PAYLOAD,2023-03-20 17:34:24,15.08839797,0.0001506,53.2182,94.4794,92.755,267.3615,-0.00010904,-2.023e-05,0.0,0 STARLINK-4789,1 53868U 22114BC  23079.73222844 -.00002023  00000-0 -10904-3 0  9999,2 53868  53.2182  94.4794 0001506  92.7550 267.3615 15.08839797 29604,6917.881,95.438,540.788,538.704,0.0
53868.0,STARLINK-4789,PAYLOAD,2023-03-21 11:03:38,15.08843692,0.000137,53.2188,91.2076,89.894,270.2209,-1.5123e-05,-5.29e-06,0.0,0 STARLINK-4789,1 53868U 22114BC  23080.46086546 -.00000529  00000-0 -15123-4 0  9996,2 53868  53.2188  91.2076 0001370  89.8940 270.2209 15.08843692 29710,6917.869,95.437,540.682,538.786,0.0
53868.0,STARLINK-4789,PAYLOAD,2023-03-22 06:08:17,15.08832352,0.0001515,53.2191,87.639,92.8364,267.2801,-1.4364e-05,-5.17e-06,0.0,0 STARLINK-4789,1 53868U 22114BC  23081.25575543 -.00000517  00000-0 -14364-4 0  9997,2 53868  53.2191  87.6390 0001515  92.8364 267.2801 15.08832352 29295,6917.904,95.438,540.817,538.721,0.0
